IRIDIUM 159             
1 43578U 18061K   23290.51678541  .00000186  00000+0  59205-4 0  9995
2 43578  86.3914 103.6561 0002110  86.7817 273.3620 14.34218201273824
IRIDIUM 180             
1 43922U 19002A   23290.37674298  .00000024  00000+0  14434-5 0  9990
2 43922  86.4005  40.5596 0002289  95.4682 264.6775 14.34219575249451
IRIDIUM 176             
1 43923U 19002B   23290.04576224  .00002256  00000+0  35378-3 0  9992
2 43923  86.6135  40.7308 0002361  93.0473 267.1015 14.72263619255928
IRIDIUM 168             
1 43924U 19002C   23290.37039855  .00000608  00000+0  21007-3 0  9996
2 43924  86.4007  40.6118 0002296  93.4585 266.6873 14.34221977249397
IRIDIUM 173             
1 43925U 19002D   23289.59026130  .00000666  00000+0  23072-3 0  9999
2 43925  86.4001  40.8661 0002195  92.1343 268.0104 14.34221135249268
IRIDIUM 169             
1 43926U 19002E   23289.49763709  .00000813  00000+0  25917-3 0  9993
2 43926  86.4200  72.5238 0002204 356.9993   3.1191 14.38604611250090
IRIDIUM 172             
1 43927U 19002F   23290.35137582  .00000568  00000+0  19566-3 0  9995
2 43927  86.4003  40.5534 0002213  92.3309 267.8140 14.34218137249381
IRIDIUM 175             
1 43928U 19002G   23289.69979900  .00002257  00000+0  35388-3 0  9996
2 43928  86.1561  27.8452 0002229  93.2848 266.8624 14.72254453255869
